{"type": "FeatureCollection", "features": [{"type": "Feature", "properties": {"norad_id": 24876, "name": "GPS BIIR-2  (PRN 13)", "group": "gnss", "lat": -55.90955979538513, "lon": 16.769071413674745, "alt_km": 20400.749044654865, "timestamp": "2025-12-26T13:39:19.216175+00:00", "meta": {"OBJECT_NAME": "GPS BIIR-2  (PRN 13)", "OBJECT_ID": "1997-035A", "EPOCH": "2025-12-25T04:43:59.116800", "MEAN_MOTION": 2.00563692, "ECCENTRICITY": 0.0096849, "INCLINATION": 55.901, "RA_OF_ASC_NODE": 105.3817, "ARG_OF_PERICENTER": 56.9385, "MEAN_ANOMALY": 303.9881, "EPHEMERIS_TYPE": 0, "CLASSIFICATION_TYPE": "U", "NORAD_CAT_ID": 24876, "ELEMENT_SET_NO": 999, "REV_AT_EPOCH": 20846, "BSTAR": 0, "MEAN_MOTION_DOT": 2.8e-07, "MEAN_MOTION_DDOT": 0}, "tle": {"line1": "1 24876U 97035A   25359.19721200  .00000028  00000+0  00000+0 0  9995", "line2": "2 24876  55.9010 105.3817 0096849  56.9385 303.9881  2.00563692208461"}}, "geometry": {"type": "Point", "coordinates": [16.769071413674745, -55.90955979538513]}}, {"type": "Feature", "properties": {"norad_id": 26360, "name": "GPS BIIR-4  (PRN 20)", "group": "gnss", "lat": 3.1456314317073817, "lon": 28.491191081870447, "alt_km": 20234.133216050497, "timestamp": "2025-12-26T13:39:19.216225+00:00", "meta": {"OBJECT_NAME": "GPS BIIR-4  (PRN 20)", "OBJECT_ID": "2000-025A", "EPOCH": "2025-12-26T01:51:32.793696", "MEAN_MOTION": 2.00566473, "ECCENTRICITY": 0.00388918, "INCLINATION": 55.0531, "RA_OF_ASC_NODE": 26.2985, "ARG_OF_PERICENTER": 243.2554, "MEAN_ANOMALY": 125.3529, "EPHEMERIS_TYPE": 0, "CLASSIFICATION_TYPE": "U", "NORAD_CAT_ID": 26360, "ELEMENT_SET_NO": 999, "REV_AT_EPOCH": 18780, "BSTAR": 0, "MEAN_MOTION_DOT": -5.6e-07, "MEAN_MOTION_DDOT": 0}, "tle": {"line1": "1 26360U 00025A   25360.07746289 -.00000056  00000+0  00000+0 0  9993", "line2": "2 26360  55.0531  26.2985 0038891 243.2554 125.3529  2.00566473187808"}}, "geometry": {"type": "Point", "coordinates": [28.491191081870447, 3.1456314317073817]}}, {"type": "Feature", "properties": {"norad_id": 26407, "name": "GPS BIIR-5  (PRN 22)", "group": "gnss", "lat": -17.665194188531963, "lon": 54.97559022261385, "alt_km": 20239.636005664375, "timestamp": "2025-12-26T13:39:19.216245+00:00", "meta": {"OBJECT_NAME": "GPS BIIR-5  (PRN 22)", "OBJECT_ID": "2000-040A", "EPOCH": "2025-12-26T00:40:29.483328", "MEAN_MOTION": 2.00568075, "ECCENTRICITY": 0.01252985, "INCLINATION": 54.8879, "RA_OF_ASC_NODE": 222.0405, "ARG_OF_PERICENTER": 302.0168, "MEAN_ANOMALY": 230.6672, "EPHEMERIS_TYPE": 0, "CLASSIFICATION_TYPE": "U", "NORAD_CAT_ID": 26407, "ELEMENT_SET_NO": 999, "REV_AT_EPOCH": 18647, "BSTAR": 0, "MEAN_MOTION_DOT": 7.1e-07, "MEAN_MOTION_DDOT": 0}, "tle": {"line1": "1 26407U 00040A   25360.02811902  .00000071  00000+0  00000+0 0  9998", "line2": "2 26407  54.8879 222.0405 0125298 302.0168 230.6672  2.00568075186479"}}, "geometry": {"type": "Point", "coordinates": [54.97559022261385, -17.665194188531963]}}, {"type": "Feature", "properties": {"norad_id": 27663, "name": "GPS BIIR-8  (PRN 16)", "group": "gnss", "lat": -18.233604809424165, "lon": -151.54306910529218, "alt_km": 20073.4663754439, "timestamp": "2025-12-26T13:39:19.216261+00:00", "meta": {"OBJECT_NAME": "GPS BIIR-8  (PRN 16)", "OBJECT_ID": "2003-005A", "EPOCH": "2025-12-24T14:50:30.961824", "MEAN_MOTION": 2.00570207, "ECCENTRICITY": 0.01478624, "INCLINATION": 54.9207, "RA_OF_ASC_NODE": 221.9058, "ARG_OF_PERICENTER": 51.9747, "MEAN_ANOMALY": 318.7946, "EPHEMERIS_TYPE": 0, "CLASSIFICATION_TYPE": "U", "NORAD_CAT_ID": 27663, "ELEMENT_SET_NO": 999, "REV_AT_EPOCH": 16781, "BSTAR": 0, "MEAN_MOTION_DOT": 6.6e-07, "MEAN_MOTION_DDOT": 0}, "tle": {"line1": "1 27663U 03005A   25358.61841391  .00000066  00000+0  00000+0 0  9998", "line2": "2 27663  54.9207 221.9058 0147862  51.9747 318.7946  2.00570207167815"}}, "geometry": {"type": "Point", "coordinates": [-151.54306910529218, -18.233604809424165]}}, {"type": "Feature", "properties": {"norad_id": 28190, "name": "GPS BIIR-11 (PRN 19)", "group": "gnss", "lat": 34.10173336742085, "lon": 74.34268672440452, "alt_km": 19930.18731223068, "timestamp": "2025-12-26T13:39:19.216274+00:00", "meta": {"OBJECT_NAME": "GPS BIIR-11 (PRN 19)", "OBJECT_ID": "2004-009A", "EPOCH": "2025-12-26T01:56:36.259872", "MEAN_MOTION": 2.00560231, "ECCENTRICITY": 0.01085974, "INCLINATION": 54.9736, "RA_OF_ASC_NODE": 282.6813, "ARG_OF_PERICENTER": 167.8637, "MEAN_ANOMALY": 337.216, "EPHEMERIS_TYPE": 0, "CLASSIFICATION_TYPE": "U", "NORAD_CAT_ID": 28190, "ELEMENT_SET_NO": 999, "REV_AT_EPOCH": 15947, "BSTAR": 0, "MEAN_MOTION_DOT": -3e-07, "MEAN_MOTION_DDOT": 0}, "tle": {"line1": "1 28190U 04009A   25360.08097523 -.00000030  00000+0  00000+0 0  9995", "line2": "2 28190  54.9736 282.6813 0108597 167.8637 337.2160  2.00560231159471"}}, "geometry": {"type": "Point", "coordinates": [74.34268672440452, 34.10173336742085]}}, {"type": "Feature", "properties": {"norad_id": 28474, "name": "GPS BIIR-13 (PRN 02)", "group": "gnss", "lat": -13.249869139245147, "lon": 161.24435924728118, "alt_km": 20359.31040453808, "timestamp": "2025-12-26T13:39:19.216288+00:00", "meta": {"OBJECT_NAME": "GPS BIIR-13 (PRN 02)", "OBJECT_ID": "2004-045A", "EPOCH": "2025-12-25T06:51:33.526944", "MEAN_MOTION": 2.00570039, "ECCENTRICITY": 0.0170989, "INCLINATION": 55.2344, "RA_OF_ASC_NODE": 331.9013, "ARG_OF_PERICENTER": 309.8108, "MEAN_ANOMALY": 41.6127, "EPHEMERIS_TYPE": 0, "CLASSIFICATION_TYPE": "U", "NORAD_CAT_ID": 28474, "ELEMENT_SET_NO": 999, "REV_AT_EPOCH": 15493, "BSTAR": 0, "MEAN_MOTION_DOT": -5.9e-07, "MEAN_MOTION_DDOT": 0}, "tle": {"line1": "1 28474U 04045A   25359.28580471 -.00000059  00000+0  00000+0 0  9990", "line2": "2 28474  55.2344 331.9013 0170989 309.8108  41.6127  2.00570039154932"}}, "geometry": {"type": "Point", "coordinates": [161.24435924728118, -13.249869139245147]}}, {"type": "Feature", "properties": {"norad_id": 28874, "name": "GPS BIIRM-1 (PRN 17)", "group": "gnss", "lat": 19.245065311691835, "lon": 86.00860331889214, "alt_km": 20434.393571127923, "timestamp": "2025-12-26T13:39:19.216302+00:00", "meta": {"OBJECT_NAME": "GPS BIIRM-1 (PRN 17)", "OBJECT_ID": "2005-038A", "EPOCH": "2025-12-24T20:45:31.120992", "MEAN_MOTION": 2.00577585, "ECCENTRICITY": 0.0131256, "INCLINATION": 55.0211, "RA_OF_ASC_NODE": 280.2128, "ARG_OF_PERICENTER": 293.8377, "MEAN_ANOMALY": 72.9738, "EPHEMERIS_TYPE": 0, "CLASSIFICATION_TYPE": "U", "NORAD_CAT_ID": 28874, "ELEMENT_SET_NO": 999, "REV_AT_EPOCH": 14834, "BSTAR": 0, "MEAN_MOTION_DOT": -2.3e-07, "MEAN_MOTION_DDOT": 0}, "tle": {"line1": "1 28874U 05038A   25358.86494353 -.00000023  00000+0  00000+0 0  9994", "line2": "2 28874  55.0211 280.2128 0131256 293.8377  72.9738  2.00577585148340"}}, "geometry": {"type": "Point", "coordinates": [86.00860331889214, 19.245065311691835]}}, {"type": "Feature", "properties": {"norad_id": 28899, "name": "INMARSAT 4-F2 (SOUTHPAN/PRN 122)", "group": "gnss", "lat": 3.1370233396565816, "lon": 83.5316592393186, "alt_km": 35796.421384745, "timestamp": "2025-12-26T13:39:19.216316+00:00", "meta": {"OBJECT_NAME": "INMARSAT 4-F2 (SOUTHPAN/PRN 122)", "OBJECT_ID": "2005-044A", "EPOCH": "2025-12-25T11:49:38.684640", "MEAN_MOTION": 1.00270481, "ECCENTRICITY": 0.00024771, "INCLINATION": 4.8675, "RA_OF_ASC_NODE": 43.7139, "ARG_OF_PERICENTER": 231.4406, "MEAN_ANOMALY": 140.0074, "EPHEMERIS_TYPE": 0, "CLASSIFICATION_TYPE": "U", "NORAD_CAT_ID": 28899, "ELEMENT_SET_NO": 999, "REV_AT_EPOCH": 7378, "BSTAR": 0, "MEAN_MOTION_DOT": -2.41e-06, "MEAN_MOTION_DDOT": 0}, "tle": {"line1": "1 28899U 05044A   25359.49280885 -.00000241  00000+0  00000+0 0  9993", "line2": "2 28899   4.8675  43.7139 0002477 231.4406 140.0074  1.00270481 73789"}}, "geometry": {"type": "Point", "coordinates": [83.5316592393186, 3.1370233396565816]}}, {"type": "Feature", "properties": {"norad_id": 29486, "name": "GPS BIIRM-2 (PRN 31)", "group": "gnss", "lat": 44.629869162027546, "lon": -157.42842475627714, "alt_km": 19895.220496598162, "timestamp": "2025-12-26T13:39:19.216330+00:00", "meta": {"OBJECT_NAME": "GPS BIIRM-2 (PRN 31)", "OBJECT_ID": "2006-042A", "EPOCH": "2025-12-26T03:59:02.302368", "MEAN_MOTION": 2.00553574, "ECCENTRICITY": 0.01072638, "INCLINATION": 54.6956, "RA_OF_ASC_NODE": 158.2082, "ARG_OF_PERICENTER": 52.2605, "MEAN_ANOMALY": 76.0437, "EPHEMERIS_TYPE": 0, "CLASSIFICATION_TYPE": "U", "NORAD_CAT_ID": 29486, "ELEMENT_SET_NO": 999, "REV_AT_EPOCH": 14092, "BSTAR": 0, "MEAN_MOTION_DOT": 1.06e-06, "MEAN_MOTION_DDOT": 0}, "tle": {"line1": "1 29486U 06042A   25360.16599887  .00000106  00000+0  00000+0 0  9995", "line2": "2 29486  54.6956 158.2082 0107263  52.2605  76.0437  2.00553574140925"}}, "geometry": {"type": "Point", "coordinates": [-157.42842475627714, 44.629869162027546]}}, {"type": "Feature", "properties": {"norad_id": 29601, "name": "GPS BIIRM-3 (PRN 12)", "group": "gnss", "lat": 46.07638361171862, "lon": -5.876564414325042, "alt_km": 19974.493998458776, "timestamp": "2025-12-26T13:39:19.216358+00:00", "meta": {"OBJECT_NAME": "GPS BIIRM-3 (PRN 12)", "OBJECT_ID": "2006-052A", "EPOCH": "2025-12-25T21:48:25.793568", "MEAN_MOTION": 2.00574428, "ECCENTRICITY": 0.00879901, "INCLINATION": 54.968, "RA_OF_ASC_NODE": 220.8755, "ARG_OF_PERICENTER": 87.5984, "MEAN_ANOMALY": 273.4866, "EPHEMERIS_TYPE": 0, "CLASSIFICATION_TYPE": "U", "NORAD_CAT_ID": 29601, "ELEMENT_SET_NO": 999, "REV_AT_EPOCH": 13993, "BSTAR": 0, "MEAN_MOTION_DOT": 7.2e-07, "MEAN_MOTION_DDOT": 0}, "tle": {"line1": "1 29601U 06052A   25359.90863187  .00000072  00000+0  00000+0 0  9994", "line2": "2 29601  54.9680 220.8755 0087990  87.5984 273.4866  2.00574428139938"}}, "geometry": {"type": "Point", "coordinates": [-5.876564414325042, 46.07638361171862]}}]}